{"type": "FeatureCollection", "features": [ {"type": "Feature", "properties": {"norad_id": 39634, "name": "SENTINEL-1A", "group": "resource", "lat": -80.11538629584147, "lon": 120.82561736335086, "alt_km": 703.9717837331955, "timestamp": "2025-12-17T07:00:46.548612+00:00", "meta": {"OBJECT_NAME": "SENTINEL-1A", "OBJECT_ID": "2014-016A", "EPOCH": "2025-12-16T23:13:18.777216", "MEAN_MOTION": 14.59200866, "ECCENTRICITY": 0.00012389, "INCLINATION": 98.1804, "RA_OF_ASC_NODE": 356.1471, "ARG_OF_PERICENTER": 82.443, "MEAN_ANOMALY": 277.6911, "EPHEMERIS_TYPE": 0, "CLASSIFICATION_TYPE": "U", "NORAD_CAT_ID": 39634, "ELEMENT_SET_NO": 999, "REV_AT_EPOCH": 62344, "BSTAR": 4.3734299e-05, "MEAN_MOTION_DOT": 1.6e-06, "MEAN_MOTION_DDOT": 0}, "tle": {"line1": "1 39634U 14016A   25350.96757844  .00000160  00000+0  43734-4 0  9993", "line2": "2 39634  98.1804 356.1471 0001238  82.4430 277.6911 14.59200866623442"}}, "geometry": {"type": "Point", "coordinates": [120.82561736335086, -80.11538629584147]}}, {"type": "Feature", "properties": {"norad_id": 39731, "name": "KAZEOSAT 1", "group": "resource", "lat": -41.014410582054005, "lon": 70.43025395955003, "alt_km": 758.8120324088823, "timestamp": "2025-12-17T07:00:46.548623+00:00", "meta": {"OBJECT_NAME": "KAZEOSAT 1", "OBJECT_ID": "2014-024A", "EPOCH": "2025-12-16T22:52:44.472864", "MEAN_MOTION": 14.42065277, "ECCENTRICITY": 0.00011428, "INCLINATION": 98.3433, "RA_OF_ASC_NODE": 62.7661, "ARG_OF_PERICENTER": 96.0188, "MEAN_ANOMALY": 264.1132, "EPHEMERIS_TYPE": 0, "CLASSIFICATION_TYPE": "U", "NORAD_CAT_ID": 39731, "ELEMENT_SET_NO": 999, "REV_AT_EPOCH": 61229, "BSTAR": 8.1730715e-05, "MEAN_MOTION_DOT": 2.26e-06, "MEAN_MOTION_DDOT": 0}, "tle": {"line1": "1 39731U 14024A   25350.95329251  .00000226  00000+0  81731-4 0  9998", "line2": "2 39731  98.3433  62.7661 0001142  96.0188 264.1132 14.42065277612290"}}, "geometry": {"type": "Point", "coordinates": [70.43025395955003, -41.014410582054005]}}, {"type": "Feature", "properties": {"norad_id": 39766, "name": "ALOS-2", "group": "resource", "lat": 80.81929627095087, "lon": -34.42833131012911, "alt_km": 622.628154085648, "timestamp": "2025-12-17T07:00:46.548633+00:00", "meta": {"OBJECT_NAME": "ALOS-2", "OBJECT_ID": "2014-029A", "EPOCH": "2025-12-17T00:05:38.704416", "MEAN_MOTION": 14.79469754, "ECCENTRICITY": 0.00013491, "INCLINATION": 97.9224, "RA_OF_ASC_NODE": 85.789, "ARG_OF_PERICENTER": 95.6676, "MEAN_ANOMALY": 264.4689, "EPHEMERIS_TYPE": 0, "CLASSIFICATION_TYPE": "U", "NORAD_CAT_ID": 39766, "ELEMENT_SET_NO": 999, "REV_AT_EPOCH": 62464, "BSTAR": 0.00012538274, "MEAN_MOTION_DOT": 8.85e-06, "MEAN_MOTION_DDOT": 0}, "tle": {"line1": "1 39766U 14029A   25351.00392019  .00000885  00000+0  12538-3 0  9999", "line2": "2 39766  97.9224  85.7890 0001349  95.6676 264.4689 14.79469754624646"}}, "geometry": {"type": "Point", "coordinates": [-34.42833131012911, 80.81929627095087]}}, {"type": "Feature", "properties": {"norad_id": 40010, "name": "KAZEOSAT 2", "group": "resource", "lat": 79.05307586461394, "lon": 58.66732163111779, "alt_km": 605.9424062202188, "timestamp": "2025-12-17T07:00:46.548644+00:00", "meta": {"OBJECT_NAME": "KAZEOSAT 2", "OBJECT_ID": "2014-033A", "EPOCH": "2025-12-17T00:06:18.942624", "MEAN_MOTION": 14.85177011, "ECCENTRICITY": 0.00079578, "INCLINATION": 97.5506, "RA_OF_ASC_NODE": 195.0984, "ARG_OF_PERICENTER": 191.5235, "MEAN_ANOMALY": 168.58, "EPHEMERIS_TYPE": 0, "CLASSIFICATION_TYPE": "U", "NORAD_CAT_ID": 40010, "ELEMENT_SET_NO": 999, "REV_AT_EPOCH": 62191, "BSTAR": 0.00013256926, "MEAN_MOTION_DOT": 1.086e-05, "MEAN_MOTION_DDOT": 0}, "tle": {"line1": "1 40010U 14033A   25351.00438591  .00001086  00000+0  13257-3 0  9997", "line2": "2 40010  97.5506 195.0984 0007957 191.5235 168.5800 14.85177011621911"}}, "geometry": {"type": "Point", "coordinates": [58.66732163111779, 79.05307586461394]}}, {"type": "Feature", "properties": {"norad_id": 40011, "name": "HODOYOSHI-4", "group": "resource", "lat": -43.519939795482394, "lon": -7.275762317877758, "alt_km": 599.697316884347, "timestamp": "2025-12-17T07:00:46.548654+00:00", "meta": {"OBJECT_NAME": "HODOYOSHI-4", "OBJECT_ID": "2014-033B", "EPOCH": "2025-12-16T23:33:07.937568", "MEAN_MOTION": 14.87498226, "ECCENTRICITY": 0.00233795, "INCLINATION": 97.5413, "RA_OF_ASC_NODE": 179.6559, "ARG_OF_PERICENTER": 186.2241, "MEAN_ANOMALY": 173.8689, "EPHEMERIS_TYPE": 0, "CLASSIFICATION_TYPE": "U", "NORAD_CAT_ID": 40011, "ELEMENT_SET_NO": 999, "REV_AT_EPOCH": 62171, "BSTAR": 0.00013701979, "MEAN_MOTION_DOT": 1.196e-05, "MEAN_MOTION_DDOT": 0}, "tle": {"line1": "1 40011U 14033B   25350.98134187  .00001196  00000+0  13702-3 0  9995", "line2": "2 40011  97.5413 179.6559 0023379 186.2241 173.8689 14.87498226621717"}}, "geometry": {"type": "Point", "coordinates": [-7.275762317877758, -43.519939795482394]}}, {"type": "Feature", "properties": {"norad_id": 40013, "name": "DEIMOS-2", "group": "resource", "lat": 67.82557735977906, "lon": 66.08152184632021, "alt_km": 581.2805227760837, "timestamp": "2025-12-17T07:00:46.548664+00:00", "meta": {"OBJECT_NAME": "DEIMOS-2", "OBJECT_ID": "2014-033D", "EPOCH": "2025-12-16T22:28:32.498400", "MEAN_MOTION": 14.92990155, "ECCENTRICITY": 0.00010742, "INCLINATION": 97.6064, "RA_OF_ASC_NODE": 226.5977, "ARG_OF_PERICENTER": 107.9917, "MEAN_ANOMALY": 252.142, "EPHEMERIS_TYPE": 0, "CLASSIFICATION_TYPE": "U", "NORAD_CAT_ID": 40013, "ELEMENT_SET_NO": 999, "REV_AT_EPOCH": 61052, "BSTAR": 0.00018777173, "MEAN_MOTION_DOT": 1.897e-05, "MEAN_MOTION_DDOT": 0}, "tle": {"line1": "1 40013U 14033D   25350.93648725  .00001897  00000+0  18777-3 0  9995", "line2": "2 40013  97.6064 226.5977 0001074 107.9917 252.1420 14.92990155610521"}}, "geometry": {"type": "Point", "coordinates": [66.08152184632021, 67.82557735977906]}}, {"type": "Feature", "properties": {"norad_id": 40015, "name": "HODOYOSHI-3", "group": "resource", "lat": 73.13384044368064, "lon": 3.1339976265742124, "alt_km": 620.6976789714381, "timestamp": "2025-12-17T07:00:46.548674+00:00", "meta": {"OBJECT_NAME": "HODOYOSHI-3", "OBJECT_ID": "2014-033F", "EPOCH": "2025-12-16T22:27:07.475616", "MEAN_MOTION": 14.8482146, "ECCENTRICITY": 0.0032054, "INCLINATION": 97.6202, "RA_OF_ASC_NODE": 156.5881, "ARG_OF_PERICENTER": 233.5945, "MEAN_ANOMALY": 126.2313, "EPHEMERIS_TYPE": 0, "CLASSIFICATION_TYPE": "U", "NORAD_CAT_ID": 40015, "ELEMENT_SET_NO": 999, "REV_AT_EPOCH": 62057, "BSTAR": 0.00018706939, "MEAN_MOTION_DOT": 1.55e-05, "MEAN_MOTION_DDOT": 0}, "tle": {"line1": "1 40015U 14033F   25350.93550319  .00001550  00000+0  18707-3 0  9997", "line2": "2 40015  97.6202 156.5881 0032054 233.5945 126.2313 14.84821460620573"}}, "geometry": {"type": "Point", "coordinates": [3.1339976265742124, 73.13384044368064]}}, {"type": "Feature", "properties": {"norad_id": 40053, "name": "SPOT 7", "group": "resource", "lat": 25.391285914244907, "lon": -122.86567092144175, "alt_km": 689.6265750210068, "timestamp": "2025-12-17T07:00:46.548685+00:00", "meta": {"OBJECT_NAME": "SPOT 7", "OBJECT_ID": "2014-034A", "EPOCH": "2025-12-16T23:44:00.214368", "MEAN_MOTION": 14.60739593, "ECCENTRICITY": 0.00015519, "INCLINATION": 98.0906, "RA_OF_ASC_NODE": 52.9666, "ARG_OF_PERICENTER": 84.844, "MEAN_ANOMALY": 275.2938, "EPHEMERIS_TYPE": 0, "CLASSIFICATION_TYPE": "U", "NORAD_CAT_ID": 40053, "ELEMENT_SET_NO": 999, "REV_AT_EPOCH": 61053, "BSTAR": 0.00010710805, "MEAN_MOTION_DOT": 4.77e-06, "MEAN_MOTION_DDOT": 0}, "tle": {"line1": "1 40053U 14034A   25350.98889137  .00000477  00000+0  10711-3 0  9992", "line2": "2 40053  98.0906  52.9666 0001551  84.8440 275.2938 14.60739593610538"}}, "geometry": {"type": "Point", "coordinates": [-122.86567092144175, 25.391285914244907]}}, {"type": "Feature", "properties": {"norad_id": 40072, "name": "SKYSAT-B", "group": "resource", "lat": 15.055324943277217, "lon": 117.50576565935371, "alt_km": 603.116886221308, "timestamp": "2025-12-17T07:00:46.548695+00:00", "meta": {"OBJECT_NAME": "SKYSAT-B", "OBJECT_ID": "2014-037D", "EPOCH": "2025-12-16T18:58:23.456928", "MEAN_MOTION": 14.87342538, "ECCENTRICITY": 0.00064477, "INCLINATION": 98.3612, "RA_OF_ASC_NODE": 294.7104, "ARG_OF_PERICENTER": 138.4227, "MEAN_ANOMALY": 221.7479, "EPHEMERIS_TYPE": 0, "CLASSIFICATION_TYPE": "U", "NORAD_CAT_ID": 40072, "ELEMENT_SET_NO": 999, "REV_AT_EPOCH": 61884, "BSTAR": 0.00018439492, "MEAN_MOTION_DOT": 1.605e-05, "MEAN_MOTION_DDOT": 0}, "tle": {"line1": "1 40072U 14037D   25350.79054927  .00001605  00000+0  18439-3 0  9995", "line2": "2 40072  98.3612 294.7104 0006447 138.4227 221.7479 14.87342538618843"}}, "geometry": {"type": "Point", "coordinates": [117.50576565935371, 15.055324943277217]}}, {"type": "Feature", "properties": {"norad_id": 40115, "name": "WORLDVIEW-3 (WV-3)", "group": "resource", "lat": 25.059821916049493, "lon": 59.81110307834782, "alt_km": 614.1541199676403, "timestamp": "2025-12-17T07:00:46.548705+00:00", "meta": {"OBJECT_NAME": "WORLDVIEW-3 (WV-3)", "OBJECT_ID": "2014-048A", "EPOCH": "2025-12-16T22:48:58.682880", "MEAN_MOTION": 14.85522182, "ECCENTRICITY": 0.00051082, "INCLINATION": 97.8613, "RA_OF_ASC_NODE": 63.178, "ARG_OF_PERICENTER": 171.1729, "MEAN_ANOMALY": 188.9577, "EPHEMERIS_TYPE": 0, "CLASSIFICATION_TYPE": "U", "NORAD_CAT_ID": 40115, "ELEMENT_SET_NO": 999, "REV_AT_EPOCH": 61486, "BSTAR": 0.00012090359, "MEAN_MOTION_DOT": 9.91e-06, "MEAN_MOTION_DDOT": 0}, "tle": {"line1": "1 40115U 14048A   25350.95067920  .00000991  00000+0  12090-3 0  9994", "line2": "2 40115  97.8613  63.1780 0005108 171.1729 188.9577 14.85522182614862"}}, "geometry": {"type": "Point", "coordinates": [59.81110307834782, 25.059821916049493]}}]}